{
  "type": "FeatureCollection",
  "features": [
    {
      "type": "Feature",
      "properties": {
        "norad_id": 66654,
        "name": "JACK E",
        "group": "last-30-days",
        "lat": -48.05408780351166,
        "lon": -80.2584220965061,
        "alt_km": 592.5054023251005,
        "timestamp": "2025-12-09T18:55:16.023692+00:00",
        "meta_object_name": "JACK E",
        "meta_object_id": "2025-274E",
        "meta_epoch": "2025-12-09T09:28:53.341248",
        "meta_mean_motion": 14.9205262,
        "meta_eccentricity": 0.00118648,
        "meta_inclination": 97.7388,
        "meta_ra_of_asc_node": 270.6521,
        "meta_arg_of_pericenter": 268.0515,
        "meta_mean_anomaly": 91.9345,
        "meta_ephemeris_type": 0,
        "meta_classification_type": "U",
        "meta_norad_cat_id": 66654,
        "meta_element_set_no": 999,
        "meta_rev_at_epoch": 190,
        "meta_bstar": 0.00043977089,
        "meta_mean_motion_dot": 4.414e-05,
        "meta_mean_motion_ddot": 0,
        "tle_line1": "1 66654U 25274E   25343.39506182  .00004414  00000+0  43977-3 0  9993",
        "tle_line2": "2 66654  97.7388 270.6521 0011864 268.0515  91.9345 14.92052620  1903"
      },
      "geometry": {
        "type": "Point",
        "coordinates": [
          -80.2584220965061,
          -48.05408780351166
        ]
      }
    },
    {
      "type": "Feature",
      "properties": {
        "norad_id": 66655,
        "name": "2025-274F",
        "group": "last-30-days",
        "lat": -36.99870205215304,
        "lon": -83.08236807370716,
        "alt_km": 592.6123678488702,
        "timestamp": "2025-12-09T18:55:16.023703+00:00",
        "meta_object_name": "2025-274F",
        "meta_object_id": "2025-274F",
        "meta_epoch": "2025-12-08T18:57:10.718496",
        "meta_mean_motion": 14.92504145,
        "meta_eccentricity": 0.00054909,
        "meta_inclination": 97.7329,
        "meta_ra_of_asc_node": 270.0601,
        "meta_arg_of_pericenter": 323.8556,
        "meta_mean_anomaly": 36.2292,
        "meta_ephemeris_type": 0,
        "meta_classification_type": "U",
        "meta_norad_cat_id": 66655,
        "meta_element_set_no": 999,
        "meta_rev_at_epoch": 181,
        "meta_bstar": 0.001516128,
        "meta_mean_motion_dot": 0.00015539,
        "meta_mean_motion_ddot": 0,
        "tle_line1": "1 66655U 25274F   25342.78970739  .00015539  00000+0  15161-2 0  9992",
        "tle_line2": "2 66655  97.7329 270.0601 0005490 323.8556  36.2292 14.92504145  1812"
      },
      "geometry": {
        "type": "Point",
        "coordinates": [
          -83.08236807370716,
          -36.99870205215304
        ]
      }
    },
    {
      "type": "Feature",
      "properties": {
        "norad_id": 66656,
        "name": "2025-274G",
        "group": "last-30-days",
        "lat": -39.60376973770326,
        "lon": -82.4983376979779,
        "alt_km": 592.0609822303577,
        "timestamp": "2025-12-09T18:55:16.023715+00:00",
        "meta_object_name": "2025-274G",
        "meta_object_id": "2025-274G",
        "meta_epoch": "2025-12-09T14:16:19.710912",
        "meta_mean_motion": 14.9224266,
        "meta_eccentricity": 0.00124857,
        "meta_inclination": 97.7385,
        "meta_ra_of_asc_node": 270.8514,
        "meta_arg_of_pericenter": 269.0756,
        "meta_mean_anomaly": 90.9033,
        "meta_ephemeris_type": 0,
        "meta_classification_type": "U",
        "meta_norad_cat_id": 66656,
        "meta_element_set_no": 999,
        "meta_rev_at_epoch": 193,
        "meta_bstar": 0.00046904644,
        "meta_mean_motion_dot": 4.735e-05,
        "meta_mean_motion_ddot": 0,
        "tle_line1": "1 66656U 25274G   25343.59467258  .00004735  00000+0  46905-3 0  9997",
        "tle_line2": "2 66656  97.7385 270.8514 0012485 269.0756  90.9033 14.92242660  1935"
      },
      "geometry": {
        "type": "Point",
        "coordinates": [
          -82.4983376979779,
          -39.60376973770326
        ]
      }
    },
    {
      "type": "Feature",
      "properties": {
        "norad_id": 66657,
        "name": "SPIRONE",
        "group": "last-30-days",
        "lat": -31.32312710036652,
        "lon": -84.20855199103514,
        "alt_km": 590.671272921486,
        "timestamp": "2025-12-09T18:55:16.023726+00:00",
        "meta_object_name": "SPIRONE",
        "meta_object_id": "2025-274H",
        "meta_epoch": "2025-12-08T20:32:05.028864",
        "meta_mean_motion": 14.92414576,
        "meta_eccentricity": 0.0010976,
        "meta_inclination": 97.7386,
        "meta_ra_of_asc_node": 270.128,
        "meta_arg_of_pericenter": 290.7866,
        "meta_mean_anomaly": 69.2177,
        "meta_ephemeris_type": 0,
        "meta_classification_type": "U",
        "meta_norad_cat_id": 66657,
        "meta_element_set_no": 999,
        "meta_rev_at_epoch": 182,
        "meta_bstar": 0.00036917,
        "meta_mean_motion_dot": 3.729e-05,
        "meta_mean_motion_ddot": 0,
        "tle_line1": "1 66657U 25274H   25342.85561376  .00003729  00000+0  36917-3 0  9996",
        "tle_line2": "2 66657  97.7386 270.1280 0010976 290.7866  69.2177 14.92414576  1829"
      },
      "geometry": {
        "type": "Point",
        "coordinates": [
          -84.20855199103514,
          -31.32312710036652
        ]
      }
    },
    {
      "type": "Feature",
      "properties": {
        "norad_id": 66658,
        "name": "2025-274J",
        "group": "last-30-days",
        "lat": -23.180336219931746,
        "lon": -85.61352297350538,
        "alt_km": 589.7963918119931,
        "timestamp": "2025-12-09T18:55:16.023738+00:00",
        "meta_object_name": "2025-274J",
        "meta_object_id": "2025-274J",
        "meta_epoch": "2025-12-09T14:11:55.777920",
        "meta_mean_motion": 14.92594222,
        "meta_eccentricity": 0.001152,
        "meta_inclination": 97.7384,
        "meta_ra_of_asc_node": 270.8551,
        "meta_arg_of_pericenter": 291.0278,
        "meta_mean_anomaly": 68.9708,
        "meta_ephemeris_type": 0,
        "meta_classification_type": "U",
        "meta_norad_cat_id": 66658,
        "meta_element_set_no": 999,
        "meta_rev_at_epoch": 193,
        "meta_bstar": 0.00044076437,
        "meta_mean_motion_dot": 4.485e-05,
        "meta_mean_motion_ddot": 0,
        "tle_line1": "1 66658U 25274J   25343.59161780  .00004485  00000+0  44076-3 0  9999",
        "tle_line2": "2 66658  97.7384 270.8551 0011520 291.0278  68.9708 14.92594222  1938"
      },
      "geometry": {
        "type": "Point",
        "coordinates": [
          -85.61352297350538,
          -23.180336219931746
        ]
      }
    },
    {
      "type": "Feature",
      "properties": {
        "norad_id": 66659,
        "name": "JACK K",
        "group": "last-30-days",
        "lat": -14.49775653989035,
        "lon": -86.93241581816146,
        "alt_km": 588.943464183697,
        "timestamp": "2025-12-09T18:55:16.023748+00:00",
        "meta_object_name": "JACK K",
        "meta_object_id": "2025-274K",
        "meta_epoch": "2025-12-09T14:09:36.881280",
        "meta_mean_motion": 14.92780033,
        "meta_eccentricity": 0.00122716,
        "meta_inclination": 97.7386,
        "meta_ra_of_asc_node": 270.8575,
        "meta_arg_of_pericenter": 292.2179,
        "meta_mean_anomaly": 67.7739,
        "meta_ephemeris_type": 0,
        "meta_classification_type": "U",
        "meta_norad_cat_id": 66659,
        "meta_element_set_no": 999,
        "meta_rev_at_epoch": 193,
        "meta_bstar": 0.00043143897,
        "meta_mean_motion_dot": 4.41e-05,
        "meta_mean_motion_ddot": 0,
        "tle_line1": "1 66659U 25274K   25343.59001020  .00004410  00000+0  43144-3 0  9993",
        "tle_line2": "2 66659  97.7386 270.8575 0012271 292.2179  67.7739 14.92780033  1932"
      },
      "geometry": {
        "type": "Point",
        "coordinates": [
          -86.93241581816146,
          -14.49775653989035
        ]
      }
    },
    {
      "type": "Feature",
      "properties": {
        "norad_id": 66660,
        "name": "K-HERO",
        "group": "last-30-days",
        "lat": -7.495728238197908,
        "lon": -87.91871096734961,
        "alt_km": 588.2951281207506,
        "timestamp": "2025-12-09T18:55:16.023758+00:00",
        "meta_object_name": "K-HERO",
        "meta_object_id": "2025-274L",
        "meta_epoch": "2025-12-09T07:41:41.618976",
        "meta_mean_motion": 14.92929512,
        "meta_eccentricity": 0.00128916,
        "meta_inclination": 97.7391,
        "meta_ra_of_asc_node": 270.596,
        "meta_arg_of_pericenter": 293.8465,
        "meta_mean_anomaly": 66.1402,
        "meta_ephemeris_type": 0,
        "meta_classification_type": "U",
        "meta_norad_cat_id": 66660,
        "meta_element_set_no": 999,
        "meta_rev_at_epoch": 189,
        "meta_bstar": 0.00045811345,
        "meta_mean_motion_dot": 4.705e-05,
        "meta_mean_motion_ddot": 0,
        "tle_line1": "1 66660U 25274L   25343.32062059  .00004705  00000+0  45811-3 0  9995",
        "tle_line2": "2 66660  97.7391 270.5960 0012891 293.8465  66.1402 14.92929512  1890"
      },
      "geometry": {
        "type": "Point",
        "coordinates": [
          -87.91871096734961,
          -7.495728238197908
        ]
      }
    }
  ]
}